[{"OBJECT_NAME":"YAOGAN-30 02B","OBJECT_ID":"2017-058B","EPOCH":"2026-03-09T22:20:48.449184","MEAN_MOTION":15.02255785,"ECCENTRICITY":0.00019399,"INCLINATION":34.9967,"RA_OF_ASC_NODE":274.9762,"ARG_OF_PERICENTER":191.875,"MEAN_ANOMALY":168.1912,"EPHEMERIS_TYPE":0,"CLASSIFICATION_TYPE":"U","NORAD_CAT_ID":42946,"ELEMENT_SET_NO":999,"REV_AT_EPOCH":46092,"BSTAR":0.0003113928,"MEAN_MOTION_DOT":4.165e-5,"MEAN_MOTION_DDOT":0},{"OBJECT_NAME":"STARLINK-34631","OBJECT_ID":"2025-152P","EPOCH":"2026-03-09T14:25:45.084000","MEAN_MOTION":15.05649076,"ECCENTRICITY":0.0002118,"INCLINATION":97.6024,"RA_OF_ASC_NODE":285.4132,"ARG_OF_PERICENTER":84.8452,"MEAN_ANOMALY":275.3017,"EPHEMERIS_TYPE":0,"CLASSIFICATION_TYPE":"U","NORAD_CAT_ID":64855,"ELEMENT_SET_NO":999,"REV_AT_EPOCH":3540,"BSTAR":0.00021908,"MEAN_MOTION_DOT":3.102e-5,"MEAN_MOTION_DDOT":0}]
